ION SCV-004             
1 50993U 22002K   26068.68892644  .00006538  00000+0  23198-3 0  9998
2 50993  97.2961 128.2294 0007216   1.6783 358.4480 15.29369331230088
STARLINK-31234          
1 59043U 24038W   26068.21569100  .00000239  00000+0  18224-4 0  9998
2 59043  43.0028  26.4213 0000775 289.2541  70.8227 15.27568027114610
